NORAD_CAT_ID,OBJECT_NAME,OBJECT_TYPE,EPOCH,MEAN_MOTION,ECCENTRICITY,INCLINATION,RA_OF_ASC_NODE,ARG_OF_PERICENTER,MEAN_ANOMALY,BSTAR,MEAN_MOTION_DOT,MEAN_MOTION_DDOT,TLE_LINE0,TLE_LINE1,TLE_LINE2,SEMIMAJOR_AXIS,PERIOD,APOGEE,PERIGEE,DECAYED
55766.0,STARLINK-5599,PAYLOAD,2023-05-28 01:39:07,15.6992075,0.0003638,69.9978,275.3421,276.7708,83.3074,4.3483e-06,3.1e-06,0.0,0 STARLINK-5599,1 55766U 23028AB  23148.06883894  .00000310  00000-0  43483-5 0  9999,2 55766  69.9978 275.3421 0003638 276.7708  83.3074 15.69920750 14059,6737.261,91.724,361.577,356.675,0.0
55766.0,STARLINK-5599,PAYLOAD,2023-05-28 18:28:23,15.69932536,0.0003412,69.998,273.3719,272.0026,88.0779,1.0489e-05,1.049e-05,0.0,0 STARLINK-5599,1 55766U 23028AB  23148.76971496  .00001049  00000-0  10489-4 0  9991,2 55766  69.9980 273.3719 0003412 272.0026  88.0779 15.69932536 14163,6737.227,91.724,361.391,356.793,0.0
55766.0,STARLINK-5599,PAYLOAD,2023-05-29 09:45:55,15.69917474,0.0003521,69.9982,271.5804,267.4175,92.6617,-8.4253e-06,-1.226e-05,0.0,0 STARLINK-5599,1 55766U 23028AB  23149.40689644 -.00001226  00000-0 -84253-5 0  9994,2 55766  69.9982 271.5804 0003521 267.4175  92.6617 15.69917474 14261,6737.27,91.725,361.507,356.763,0.0
55766.0,STARLINK-5599,PAYLOAD,2023-05-29 11:17:41,15.69917211,0.0003578,69.9982,271.4011,269.951,90.1276,-8.7243e-06,-1.262e-05,0.0,0 STARLINK-5599,1 55766U 23028AB  23149.47061350 -.00001262  00000-0 -87243-5 0  9991,2 55766  69.9982 271.4011 0003578 269.9510  90.1276 15.69917211 14287,6737.271,91.725,361.546,356.725,0.0
55766.0,STARLINK-5599,PAYLOAD,2023-05-29 17:24:41,15.69923088,0.0003357,69.9985,270.6846,265.5044,94.5769,-2.9548e-06,-5.68e-06,0.0,0 STARLINK-5599,1 55766U 23028AB  23149.72547557 -.00000568  00000-0 -29548-5 0  9999,2 55766  69.9985 270.6846 0003357 265.5044  94.5769 15.69923088 14314,6737.254,91.724,361.381,356.857,0.0
55766.0,STARLINK-5599,PAYLOAD,2023-05-30 01:03:26,15.69929544,0.0003487,69.9986,269.7892,269.0819,90.9977,8.6577e-06,8.29e-06,0.0,0 STARLINK-5599,1 55766U 23028AB  23150.04405224  .00000829  00000-0  86577-5 0  9993,2 55766  69.9986 269.7892 0003487 269.0819  90.9977 15.69929544 14367,6737.236,91.724,361.45,356.751,0.0
55766.0,STARLINK-5599,PAYLOAD,2023-05-30 11:45:42,15.69925885,0.0003391,69.9991,268.5375,262.1691,97.9119,1.1182e-05,1.132e-05,0.0,0 STARLINK-5599,1 55766U 23028AB  23150.49007114  .00001132  00000-0  11182-4 0  9995,2 55766  69.9991 268.5375 0003391 262.1691  97.9119 15.69925885 14440,6737.246,91.724,361.396,356.826,0.0
55766.0,STARLINK-5599,PAYLOAD,2023-05-30 16:20:57,15.6992834,0.0003495,69.9993,268.0002,268.097,91.9826,8.8212e-06,8.48e-06,0.0,0 STARLINK-5599,1 55766U 23028AB  23150.68122040  .00000848  00000-0  88212-5 0  9994,2 55766  69.9993 268.0002 0003495 268.0970  91.9826 15.69928340 14475,6737.239,91.724,361.459,356.749,0.0
55766.0,STARLINK-5599,PAYLOAD,2023-05-31 10:41:58,15.69930281,0.0002978,69.9994,265.8496,247.4411,112.6469,1.4566e-05,1.54e-05,0.0,0 STARLINK-5599,1 55766U 23028AB  23151.44581865  .00001540  00000-0  14566-4 0  9993,2 55766  69.9994 265.8496 0002978 247.4411 112.6469 15.69930281 14587,6737.233,91.724,361.105,357.092,0.0
55766.0,STARLINK-5599,PAYLOAD,2023-05-31 16:48:59,15.69924429,0.0003541,69.9988,265.1345,254.6991,105.3813,6.3766e-06,5.54e-06,0.0,0 STARLINK-5599,1 55766U 23028AB  23151.70069097  .00000554  00000-0  63766-5 0  9991,2 55766  69.9988 265.1345 0003541 254.6991 105.3813 15.69924429 14620,6737.25,91.724,361.501,356.73,0.0
55766.0,STARLINK-5599,PAYLOAD,2023-06-01 00:27:46,15.69917974,0.0002932,69.9997,264.2357,269.4978,90.5882,-8.2494e-06,-1.204e-05,0.0,0 STARLINK-5599,1 55766U 23028AB  23152.01928419 -.00001204  00000-0 -82494-5 0  9992,2 55766  69.9997 264.2357 0002932 269.4978  90.5882 15.69917974 14678,6737.269,91.725,361.109,357.158,0.0
55766.0,STARLINK-5599,PAYLOAD,2023-06-01 11:10:01,15.69926913,0.0003463,69.9987,262.9824,266.6534,93.4265,6.0693e-06,5.17e-06,0.0,0 STARLINK-5599,1 55766U 23028AB  23152.46529172  .00000517  00000-0  60693-5 0  9995,2 55766  69.9987 262.9824 0003463 266.6534  93.4265 15.69926913 14757,6737.243,91.724,361.441,356.775,0.0
55766.0,STARLINK-5599,PAYLOAD,2023-06-02 10:06:18,15.69922886,0.0003488,69.9977,260.2933,262.3617,97.7183,-9.6585e-06,-1.374e-05,0.0,0 STARLINK-5599,1 55766U 23028AB  23153.42104820 -.00001374  00000-0 -96585-5 0  9994,2 55766  69.9977 260.2933 0003488 262.3617  97.7183 15.69922886 14896,6737.255,91.724,361.47,356.77,0.0
55766.0,STARLINK-5599,PAYLOAD,2023-06-02 16:13:18,15.69929331,0.0003529,69.9973,259.5751,261.4901,98.5895,-3.8667e-06,-6.78e-06,0.0,0 STARLINK-5599,1 55766U 23028AB  23153.67590916 -.00000678  00000-0 -38667-5 0  9999,2 55766  69.9973 259.5751 0003529 261.4901  98.5895 15.69929331 14939,6737.236,91.724,361.479,356.724,0.0
55766.0,STARLINK-5599,PAYLOAD,2023-06-03 10:34:20,15.69926036,0.0003153,69.9992,257.4292,271.9316,88.1518,4.3348e-06,3.09e-06,0.0,0 STARLINK-5599,1 55766U 23028AB  23154.44051352  .00000309  00000-0  43348-5 0  9992,2 55766  69.9992 257.4292 0003153 271.9316  88.1518 15.69926036 15067,6737.246,91.724,361.235,356.986,0.0
55766.0,STARLINK-5599,PAYLOAD,2023-06-03 16:41:20,15.69927457,0.0003357,69.998,256.7102,262.4423,97.6392,-2.9565e-06,-5.68e-06,0.0,0 STARLINK-5599,1 55766U 23028AB  23154.69537966 -.00000568  00000-0 -29565-5 0  9993,2 55766  69.9980 256.7102 0003357 262.4423  97.6392 15.69927457 15092,6737.242,91.724,361.368,356.845,0.0
55766.0,STARLINK-5599,PAYLOAD,2023-06-04 00:20:08,15.69892227,0.0003185,69.9995,255.8161,277.8549,82.2285,-1.1282e-05,-1.567e-05,0.0,0 STARLINK-5599,1 55766U 23028AB  23155.01399142 -.00001567  00000-0 -11282-4 0  9998,2 55766  69.9995 255.8161 0003185 277.8549  82.2285 15.69892227 15144,6737.342,91.726,361.353,357.061,0.0
55766.0,STARLINK-5599,PAYLOAD,2023-06-04 09:31:10,15.694711,0.000626,69.9972,254.7393,301.4938,58.5646,-0.00049598,-0.00058391,0.0,0 STARLINK-5599,1 55766U 23028AB  23155.39664493 -.00058391  00000-0 -49598-3 0  9990,2 55766  69.9972 254.7393 0006260 301.4938  58.5646 15.69471100 15204,6738.547,91.751,364.631,356.194,0.0
55766.0,STARLINK-5599,PAYLOAD,2023-06-04 14:06:13,15.69802882,0.0005791,69.9999,254.2093,261.0774,98.9766,-5.1925e-05,-6.426e-05,0.0,0 STARLINK-5599,1 55766U 23028AB  23155.58765830 -.00006426  00000-0 -51925-4 0  9998,2 55766  69.9999 254.2093 0005791 261.0774  98.9766 15.69802882 15242,6737.598,91.731,363.365,355.561,0.0
55766.0,STARLINK-5599,PAYLOAD,2023-06-04 15:37:12,15.70444334,0.0009054,70.0006,254.0304,259.3783,100.6394,0.00066381,0.00082303,0.0,0 STARLINK-5599,1 55766U 23028AB  23155.65083697  .00082303  00000-0  66381-3 0  9997,2 55766  70.0006 254.0304 0009054 259.3783 100.6394 15.70444334 15247,6735.763,91.694,363.727,351.53,0.0
55766.0,STARLINK-5599,PAYLOAD,2023-06-04 18:42:25,15.69045441,0.0003117,69.9983,253.6711,265.9559,94.128,-0.00092009,-0.00105569,0.0,0 STARLINK-5599,1 55766U 23028AB  23155.77946107 -.00105569  00000-0 -92009-3 0  9992,2 55766  69.9983 253.6711 0003117 265.9559  94.1280 15.69045441 15271,6739.766,91.776,363.732,359.53,0.0
55766.0,STARLINK-5599,PAYLOAD,2023-06-05 06:00:00,15.67319871,0.0003359,70.0011,252.3493,269.6992,227.6957,-0.0095316,-0.00937171,0.0,0 STARLINK-5599,1 55766U 23028AB  23156.25001157 -.00937171  00000-0 -95316-2 0  9998,2 55766  70.0011 252.3493 0003359 269.6992 227.6957 15.67319871 15339,6744.712,91.877,368.843,364.312,0.0
55766.0,STARLINK-5599,PAYLOAD,2023-06-05 14:00:01,15.66608234,0.000342,70.0007,251.4164,275.9601,301.3134,-0.0088636,-0.0084197,0.0,0 STARLINK-5599,1 55766U 23028AB  23156.58335648 -.00841970  00000-0 -88636-2 0  9997,2 55766  70.0007 251.4164 0003420 275.9601 301.3134 15.66608234  1307,6746.754,91.918,370.927,366.312,0.0
55766.0,STARLINK-5599,PAYLOAD,2023-06-06 00:00:00,15.65795107,0.0003467,70.0003,250.2512,272.7249,133.1212,-0.0092724,-0.00851366,0.0,0 STARLINK-5599,1 55766U 23028AB  23157.00001157 -.00851366  00000-0 -92724-2 0  9993,2 55766  70.0003 250.2512 0003467 272.7249 133.1212 15.65795107  1304,6749.09,91.966,373.295,368.615,0.0
55766.0,STARLINK-5599,PAYLOAD,2023-06-06 14:00:01,15.64663074,0.000332,70.0002,248.6228,276.8427,175.0347,-0.0097689,-0.00869078,0.0,0 STARLINK-5599,1 55766U 23028AB  23157.58334491 -.00869078  00000-0 -97689-2 0  9990,2 55766  70.0002 248.6228 0003320 276.8427 175.0347 15.64663074 15540,6752.345,92.033,376.452,371.968,0.0
55766.0,STARLINK-5599,PAYLOAD,2023-06-06 20:00:01,15.64224087,0.0003343,69.9998,247.9257,275.1263,144.305,-0.011057,-0.00957748,0.0,0 STARLINK-5599,1 55766U 23028AB  23157.83334491 -.00957748  00000-0 -11057-1 0  9994,2 55766  69.9998 247.9257 0003343 275.1263 144.3050 15.64224087  1306,6753.608,92.058,377.731,373.215,0.0
55766.0,STARLINK-5599,PAYLOAD,2023-06-07 06:00:00,15.63413831,0.0003313,70.0001,246.7653,266.1117,338.2836,-0.011333,-0.00951301,0.0,0 STARLINK-5599,1 55766U 23028AB  23158.25001157 -.00951301  00000-0 -11333-1 0  9997,2 55766  70.0001 246.7653 0003313 266.1117 338.2836 15.63413831 15640,6755.941,92.106,380.045,375.568,0.0
55766.0,STARLINK-5599,PAYLOAD,2023-06-07 14:00:01,15.62712092,0.0003415,69.9997,245.8377,273.7949,45.7147,-0.010683,-0.00879011,0.0,0 STARLINK-5599,1 55766U 23028AB  23158.58334491 -.00879011  00000-0 -10683-1 0  9997,2 55766  69.9997 245.8377 0003415 273.7949  45.7147 15.62712092  1307,6757.964,92.147,382.137,377.521,0.0
55766.0,STARLINK-5599,PAYLOAD,2023-06-07 22:00:00,15.62071455,0.0003377,69.9993,244.911,273.1914,120.6308,-0.011361,-0.00908814,0.0,0 STARLINK-5599,1 55766U 23028AB  23158.91667824 -.00908814  00000-0 -11361-1 0  9991,2 55766  69.9993 244.9110 0003377 273.1914 120.6308 15.62071455  1304,6759.811,92.185,383.959,379.394,0.0
55766.0,STARLINK-5599,PAYLOAD,2023-06-08 06:00:00,15.61451445,0.0003321,69.9995,243.9851,270.3547,196.9836,-0.012128,-0.00943557,0.0,0 STARLINK-5599,1 55766U 23028AB  23159.25001157 -.00943557  00000-0 -12128-1 0  9995,2 55766  69.9995 243.9851 0003321 270.3547 196.9836 15.61451445 15809,6761.601,92.222,385.711,381.22,0.0
